1998-067XK              
1 65731U 98067XK  26026.70308357  .00225808  00000+0  12540-2 0  9999
2 65731  51.6242 267.2629 0004131 156.7640 203.3548 15.78296122 20219
RSP-03                  
1 65732U 98067XL  26026.74933255  .00424302  00000+0  14672-2 0  9993
2 65732  51.6204 264.5262 0005454 175.8657 184.2394 15.87842701 20261
YOTSUBA-KULOVER         
1 65941U 98067XN  26026.65793079  .00120970  00000+0  10765-2 0  9996
2 65941  51.6264 272.9869 0004438 168.1165 191.9937 15.67591432 16886
BOTAN                   
1 65942U 98067XP  26025.80197135  .00276857  00000+0  16525-2 0  9990
2 65942  51.6217 274.7500 0005177 172.7994 187.3082 15.76521703 16782
E-KAGAKU-1              
1 65943U 98067XQ  26026.40307264  .00123526  00000+0  11039-2 0  9993
2 65943  51.6285 274.2937 0003177 174.3468 185.7565 15.67482387 16848
HRC MONOBLOCK CAMERA    
1 66052U 98067XR  26026.67664472  .00051816  00000+0  68320-3 0  9999
2 66052  51.6303 276.8674 0000528  41.0184 319.0848 15.57887596 15833
HTV-X1                  
1 66174U 25241A   26026.56234844  .00012665  00000+0  24389-3 0  9998
2 66174  51.6321 280.6014 0011114  32.6655 327.5019 15.48203655   512
SZ-21 MODULE            
1 66515U 25246C   26026.56190754  .00037546  00000+0  36755-3 0  9998
2 66515  41.4753 102.0620 0003291 241.2608 118.7902 15.65368052 11469
SHENZHOU-22             
1 66645U 25272A   26026.58890245  .00025844  00000+0  29991-3 0  9997
2 66645  41.4668 104.0443 0009744   7.7194 352.3793 15.61124470267644
SOYUZ-MS 28             
1 66664U 25275A   26026.56234843  .00012665  00000+0  24389-3 0  9998
2 66664  51.6321 280.6014 0011114  32.6655 327.5019 15.48203655549806
DUPLEX                  
1 66906U 98067XS  26025.96971424  .00033926  00000+0  53502-3 0  9994
2 66906  51.6306 282.6444 0001838  58.3850 301.7319 15.53209937  8487
1998-067XT              
1 66907U 98067XT  26026.71960572  .00106877  00000+0  13455-2 0  9999
2 66907  51.6281 277.9018 0003153 130.0462 230.0807 15.58799011  8616
